*******************************************************************************
Ephemeris / WWW_USER Mon Mar 10 07:03:18 2025 Pasadena, USA      / Horizons    
*******************************************************************************
Target body name: (2019 AK3)                      {source: JPL#8}
Center body name: Earth (399)                     {source: DE441}
Center-site name: Mauna Kea
*******************************************************************************
Start time      : A.D. 2019-Jan-19 04:15:00.0000 UT      
Stop  time      : A.D. 2019-Jan-19 16:49:00.0000 UT      
Step-size       : 1 minutes
*******************************************************************************
Target pole/equ : undefined
Target radii    : undefined                                                    
Center geodetic : 204.5278, 19.8260847, 4.21024   {E-lon(deg),Lat(deg),Alt(km)}
Center cylindric: 204.5278, 6006.35451, 2151.0229 {E-lon(deg),Dxy(km),Dz(km)}
Center pole/equ : ITRF93                          {East-longitude positive}
Center radii    : 6378.137, 6378.137, 6356.752 km {Equator_a, b, pole_c}       
Target primary  : Sun
Vis. interferer : MOON (R_eq= 1737.400) km        {source: DE441}
Rel. light bend : Sun                             {source: DE441}
Rel. lght bnd GM: 1.3271E+11 km^3/s^2                                          
Small-body perts: Yes                             {source: SB441-N16}
Atmos refraction: NO (AIRLESS)
RA format       : HMS
Time format     : CAL 
Calendar mode   : Mixed Julian/Gregorian
RTS-only print  : NO       
EOP file        : eop.250307.p250603                                           
EOP coverage    : DATA-BASED 1962-JAN-20 TO 2025-MAR-07. PREDICTS-> 2025-JUN-02
Units conversion: 1 au= 149597870.700 km, c= 299792.458 km/s, 1 day= 86400.0 s 
Table cut-offs 1: Elevation (-90.0deg=NO ),Airmass (>38.000=NO), Daylight (YES)
Table cut-offs 2: Solar elongation (  0.0,180.0=NO ),Local Hour Angle( 0.0=NO )
Table cut-offs 3: RA/DEC angular rate (     0.0=NO )                           
*******************************************************************************
Initial IAU76/J2000 heliocentric ecliptic osculating elements (au, days, deg.):
  EPOCH=  2458490.5 ! 2019-Jan-07.00 (TDB)         Residual RMS= .10027        
   EC= .4460441123274964   QR= .8736665173848456   TP= 2458534.5649506859      
   OM= 293.7231565418804   W=  230.0622942544228   IN= 4.899135051513321       
  Equivalent ICRF heliocentric cartesian coordinates (au, au/d):
   X=-2.869453413579581E-01  Y= 8.924440573967301E-01  Z= 3.991223626471717E-01
  VX=-1.652766681412374E-02 VY=-9.271695064707189E-03 VZ=-5.840432387800149E-03
Asteroid physical parameters (km, seconds, rotational period in hours):        
   GM= n.a.                RAD= n.a.               ROTPER= n.a.                
   H= 27.                  G= .150                 B-V= n.a.                   
                           ALBEDO= n.a.            STYP= n.a.                  
*******************************************************************************
 Date__(UT)__HR:MN     R.A._________(ICRF)_________DEC
******************************************************
$$SOE
 2019-Jan-19 16:33 N   16 55 07.847771 -35 44 23.93171
 2019-Jan-19 16:34 N   16 55 08.240911 -35 44 25.96414
 2019-Jan-19 16:35 N   16 55 08.633794 -35 44 27.99458
 2019-Jan-19 16:36 N   16 55 09.026422 -35 44 30.02303
 2019-Jan-19 16:37 C   16 55 09.418795 -35 44 32.04947
 2019-Jan-19 16:38 C   16 55 09.810915 -35 44 34.07392
 2019-Jan-19 16:39 C   16 55 10.202783 -35 44 36.09635
 2019-Jan-19 16:40 C   16 55 10.594398 -35 44 38.11676
 2019-Jan-19 16:41 C   16 55 10.985764 -35 44 40.13516
 2019-Jan-19 16:42 C   16 55 11.376880 -35 44 42.15153
 2019-Jan-19 16:43 C   16 55 11.767747 -35 44 44.16587
 2019-Jan-19 16:44 C   16 55 12.158367 -35 44 46.17817
 2019-Jan-19 16:45 C   16 55 12.548740 -35 44 48.18843
 2019-Jan-19 16:46 C   16 55 12.938868 -35 44 50.19664
 2019-Jan-19 16:47 C   16 55 13.328752 -35 44 52.20280
 2019-Jan-19 16:48 C   16 55 13.718392 -35 44 54.20690
 2019-Jan-19 16:49 C   16 55 14.107790 -35 44 56.20895
